STARLINK-1904           
1 48389U 21038AN  21287.46079213 -.00000407  00000-0 -84667-5 0  9997
2 48389  53.0542 356.7348 0000963 105.0615 255.0481 15.06392434 25644
STARLINK-2586           
1 48390U 21038AP  21287.52345702 -.00001391  00000-0 -74569-4 0  9997
2 48390  53.0568 356.4623 0000905 101.5145 258.5945 15.06383901 25655
STARLINK-2607           
1 48391U 21038AQ  21287.51977945 -.00003062  00000-0 -18685-3 0  9990
2 48391  53.0565 356.4772 0001322 116.2961 243.8164 15.06379715 25648
STARLINK-2605           
1 48392U 21038AR  21287.51609032 -.00001450  00000-0 -78495-4 0  9995
2 48392  53.0569 356.4911 0001195 122.1285 237.9820 15.06388107 25650
STARLINK-2602           
1 48393U 21038AS  21287.91049155 -.00002809  00000-0 -16988-3 0  9991
2 48393  53.0578 354.7227 0001160 104.3448 255.7670 15.06381147 25712
STARLINK-2573           
1 48394U 21038AT  21287.57506345 -.00001467  00000-0 -79686-4 0  9997
2 48394  53.0563 356.2233 0001015 111.7303 248.3795 15.06382570 25663
STARLINK-2574           
1 48395U 21038AU  21287.49302849 -.00002459  00000-0 -14630-3 0  9991
2 48395  53.0558 356.5908 0001147 116.8593 243.2513 15.06381587 25651
STARLINK-2575           
1 48396U 21038AV  21287.57138253 -.00002241  00000-0 -13169-3 0  9992
2 48396  53.0565 356.2385 0000976 107.8189 252.2906 15.06379275 25664
STARLINK-2590           
1 48397U 21038AW  21287.50134622 -.00002938  00000-0 -17851-3 0  9997
2 48397  53.0576 356.5602 0001163 106.3798 253.7319 15.06384218 25646
STARLINK-2588           
1 48398U 21038AX  21287.56400467 -.00001698  00000-0 -95191-4 0  9993
2 48398  53.0572 356.2774 0001172 117.6991 242.4117 15.06380382 25661
STARLINK-2587           
1 48399U 21038AY  21287.56031586 -.00000998  00000-0 -48157-4 0  9998
2 48399  53.0575 356.2973 0000948 115.5883 244.5204 15.06383092 25664
STARLINK-2576           
1 48400U 21038AZ  21287.88837040 -.00002863  00000-0 -17344-3 0  9991
2 48400  53.0574 354.8220 0001293 109.2976 250.8153 15.06390247 25126
STARLINK-2571           
1 48401U 21038BA  21287.92427170 -.00001144  00000-0 -57965-4 0  9991
2 48401  53.0560 354.6635 0001037  99.4752 260.6354 15.06397187 25715
STARLINK-2560           
1 48402U 21038BB  21287.88468260 -.00001255  00000-0 -65386-4 0  9991
2 48402  53.0581 354.8419 0000982 116.8167 243.2923 15.06389501 25128
STARLINK-2561           
1 48403U 21038BC  21287.88100637 -.00002970  00000-0 -18074-3 0  9999
2 48403  53.0566 354.8506 0001000 111.6621 248.4475 15.06375727 25718
STARLINK-2593           
1 48404U 21038BD  21287.47922714 -.00003062  00000-0 -18683-3 0  9992
2 48404  53.0571 356.6604 0001067 115.4917 244.6183 15.06387323 25659
STARLINK-2570           
1 48405U 21038BE  21287.47552697 -.00000128  00000-0  10274-4 0  9990
2 48405  53.0576 356.6782 0000867 107.9477 252.1607 15.06395201 25655
STARLINK-2568           
1 48406U 21038BF  21287.47186016 -.00003036  00000-0 -18513-3 0  9994
2 48406  53.0565 356.6878 0001184 115.5848 244.5263 15.06379923 25656
STARLINK-2595           
1 48407U 21038BG  21287.46815088 -.00002712  00000-0 -16321-3 0  9997
2 48407  53.0510 356.7236 0000807 107.3818 252.7260 15.06407981 25051
STARLINK-2592           
1 48408U 21038BH  21287.46447734 -.00002132  00000-0 -12435-3 0  9995
2 48408  53.0537 356.7221 0001159 106.9815 253.1301 15.06385879 25645
STARLINK-2596           
1 48409U 21038BJ  21287.48798913 -.00001214  00000-0 -62650-4 0  9991
2 48409  53.0561   1.6180 0000866 109.7560 250.3523 15.06389380 25584
STARLINK-2563           
1 48410U 21038BK  21288.25002315 -.01097147  00000-0 -15566-1 0  9995
2 48410  53.0476 312.2567 0001379  68.8864 137.8221 15.58481906 26335
STARLINK-2505           
1 48411U 21038BL  21288.00002315  .00195337  00000-0  13665-2 0  9995
2 48411  53.0475 313.0921 0004736 325.9395  69.3079 15.73145232  3751
STARLINK-2581           
1 48412U 21038BM  21288.25002315  .00008208  00000-0  62818-4 0  9999
2 48412  53.0478 311.8546 0005454 330.0963  42.6981 15.73206801 26335
YAOGAN-30 X             
1 48423U 21039A   21288.18162037  .00000598  00000-0  63653-4 0  9994
2 48423  35.0002 228.9224 0005135  55.2836 304.8365 14.90015315 24076
YAOGAN-30 Y             
1 48424U 21039B   21288.22610751  .00000584  00000-0  62178-4 0  9997
2 48424  34.9984 228.3233 0005129 181.3973 178.6728 14.90017379 24087
YAOGAN-30 Z             
1 48425U 21039C   21288.20383210  .00000581  00000-0  61853-4 0  9999
2 48425  34.9985 228.1447 0002743  88.0503 272.0530 14.90015338 24099
TIANQI-12               
1 48426U 21039D   21288.20019232  .00000546  00000-0  56216-4 0  9998
2 48426  35.0074 226.3450 0005487 210.4154 149.6275 14.91509357 24080
STARLINK-2461           
1 48428U 21040A   21288.06668615 -.00003104  00000-0 -18965-3 0  9994
2 48428  53.0557 199.0196 0001671  76.8482 283.2693 15.06377963 25689
STARLINK-2749           
1 48429U 21040B   21288.00002315  .00006025  00000-0  42321-3 0  9994
2 48429  53.0546 169.3161 0001970  54.7035 113.9664 15.06385711  3662
STARLINK-2729           
1 48430U 21040C   21288.25002315 -.00017543  00000-0 -11621-2 0  9990
2 48430  53.0521 168.1941 0002012  62.4392 202.6459 15.06386963 26135
STARLINK-2700           
1 48431U 21040D   21288.00002315  .00011092  00000-0  76311-3 0  9993
2 48431  53.0536 164.3170 0001687  47.9866 228.1798 15.06364779  3680
STARLINK-2680           
1 48432U 21040E   21288.00002315 -.01077588  00000-0 -57887-1 0  9994
2 48432  53.0456 159.5012 0001481  65.8078  66.4948 15.17161697  3720
STARLINK-2699           
1 48433U 21040F   21288.25002315 -.00024217  00000-0 -16123-2 0  9991
2 48433  53.0512 163.2048 0001874  45.9149 326.7078 15.06401500 25525
STARLINK-2692           
1 48434U 21040G   21288.00002315 -.00000530  00000-0 -16689-4 0  9996
2 48434  53.0624 169.2692 0001857  58.1012 350.4956 15.06364451  3659
STARLINK-2633           
1 48435U 21040H   21287.40586031 -.00002473  00000-0 -15416-3 0  9996
2 48435  53.0533 180.1449 0001759  70.9252 289.1927 15.04751906 25888
STARLINK-2639           
1 48436U 21040J   21288.03581394 -.00001989  00000-0 -11471-3 0  9992
2 48436  53.0546 194.1630 0001812  69.9289 290.1895 15.06378029 24910
STARLINK-2642           
1 48437U 21040K   21287.51003729 -.00002468  00000-0 -15378-3 0  9999
2 48437  53.0539 206.3264 0002075  62.4034 297.7164 15.04755308 25538
STARLINK-2640           
1 48438U 21040L   21288.09846724 -.00000850  00000-0 -38195-4 0  9990
2 48438  53.0557 193.8866 0001966  75.2683 284.8523 15.06382898 25759
STARLINK-2583           
1 48439U 21040M   21288.09478817 -.00003061  00000-0 -18678-3 0  9995
2 48439  53.0565 193.9075 0001834  65.3639 294.7540 15.06381338 25754
STARLINK-2682           
1 48440U 21040N   21288.09110330 -.00002076  00000-0 -12057-3 0  9990
2 48440  53.0548 193.9039 0001833  70.2342 289.8845 15.06376929 24923
STARLINK-2702           
1 48441U 21040P   21287.68932719 -.00002554  00000-0 -15267-3 0  9995
2 48441  53.0557 195.7081 0001892  73.5138 286.6059 15.06389200 24417
STARLINK-2644           
1 48442U 21040Q   21288.01739159 -.00002224  00000-0 -13054-3 0  9993
2 48442  53.0551 194.2374 0001673  66.1094 294.0070 15.06369995 25749
STARLINK-2663           
1 48443U 21040R   21288.01369835 -.00002132  00000-0 -12433-3 0  9992
2 48443  53.0552 194.2507 0001634  66.6701 293.4459 15.06377331 25743
STARLINK-2645           
1 48444U 21040S   21288.01001597 -.00002181  00000-0 -12762-3 0  9990
2 48444  53.0553 194.2719 0001776  65.7354 294.3821 15.06376567 25744
STARLINK-2634           
1 48445U 21040T   21288.00632876 -.00001735  00000-0 -97637-4 0  9999
2 48445  53.0565 194.2863 0001751  65.8200 294.2972 15.06378691 25748
STARLINK-2247           
1 48446U 21040U   21287.73723618 -.00000943  00000-0 -44430-4 0  9997
2 48446  53.0551 195.4947 0001640  65.4420 294.6740 15.06394099 24428
STARLINK-2269           
1 48447U 21040V   21288.06530088 -.00001996  00000-0 -11523-3 0  9997
2 48447  53.0554 194.0188 0001540  68.5735 291.5418 15.06377181 25024
STARLINK-2632           
1 48448U 21040W   21288.02380975 -.00002850  00000-0 -17260-3 0  9996
2 48448  53.0543 194.2045 0001460  80.9573 279.1581 15.06380953 25738
STARLINK-2655           
1 48449U 21040X   21288.06160882 -.00001794  00000-0 -10162-3 0  9994
2 48449  53.0560 194.0365 0001748  67.5210 292.5964 15.06389379 25756
STARLINK-2660           
1 48450U 21040Y   21287.46079762 -.00001546  00000-0 -84973-4 0  9992
2 48450  53.0554 196.7322 0001524  62.4021 297.7122 15.06386059 25664
STARLINK-2652           
1 48451U 21040Z   21287.72250658 -.00001886  00000-0 -10780-3 0  9998
2 48451  53.0562 195.5601 0001783  61.8518 298.2650 15.06373205 24426
STARLINK-2703           
1 48452U 21040AA  21287.72524528 -.00001642  00000-0 -91437-4 0  9998
2 48452  53.0557 195.5462 0001530  74.4100 285.7058 15.06378156 24426
STARLINK-2620           
1 48453U 21040AB  21287.71881374 -.00001677  00000-0 -93719-4 0  9996
2 48453  53.0543 195.5768 0001607  72.2361 287.8804 15.06391884 24426
STARLINK-2654           
1 48454U 21040AC  21287.44974103 -.00002723  00000-0 -16402-3 0  9996
2 48454  53.0561 196.7827 0001901  62.0353 298.0828 15.06384165 25662
STARLINK-2497           
1 48455U 21040AD  21287.71144254 -.00001331  00000-0 -70488-4 0  9992
2 48455  53.0517 195.6216 0001532  62.7836 297.3309 15.06383742 24415
STARLINK-2508           
1 48456U 21040AE  21287.44236764 -.00002512  00000-0 -14987-3 0  9994
2 48456  53.0546 196.8307 0001946  63.8380 296.2809 15.06385089 24988
STARLINK-2698           
1 48458U 21040AG  21287.18109942 -.00001928  00000-0 -11058-3 0  9990
2 48458  53.0563 202.9897 0001875  74.8073 285.3123 15.06394637 24813
STARLINK-2579           
1 48459U 21040AH  21287.47966448 -.00002629  00000-0 -15773-3 0  9992
2 48459  53.0545 201.6559 0001426  64.3788 295.7349 15.06378627 24922
